COSMOS 2251 DEB         
1 34481U 93036UA  26073.56851460  .00001129  00000+0  41166-3 0  9997
2 34481  73.9768 245.1667 0069535  36.8702  26.8867 14.32891033887641
COSMOS 2251 DEB         
1 34482U 93036UB  26073.36687101  .00015256  00000+0  24121-2 0  9992
2 34482  74.0360  45.7934 0037672  86.3934  39.6720 14.71834338895341
COSMOS 2251 DEB         
1 34544U 93036UE  26072.43406428  .00000687  00000+0  64778-3 0  9994
2 34544  73.9146  57.1916 0380042  68.8632  84.4332 13.54833598841108
COSMOS 2251 DEB         
1 34546U 93036UG  26073.17516348  .00001874  00000+0  53358-3 0  9992
2 34546  74.0289  78.6309 0019710 139.7032 347.1007 14.45870536893476
COSMOS 2251 DEB         
1 34547U 93036UH  26073.62886430  .00009668  00000+0  14495-2 0  9992
2 34547  74.0291 281.5096 0016505 336.5097  23.5321 14.74619188898751
COSMOS 2251 DEB         
1 34553U 93036UP  26072.98237084  .00006540  00000+0  13987-2 0  9993
2 34553  74.0268  18.1386 0016014  76.7860  42.8151 14.58892150894265
COSMOS 2251 DEB         
1 34554U 93036UQ  26072.14201209  .00000781  00000+0  26532-3 0  9994
2 34554  74.0377 132.5102 0023106 181.0965 207.7937 14.38142884890552
COSMOS 2251 DEB         
1 34556U 93036US  26073.63990559  .00018863  00000+0  24238-2 0  9994
2 34556  74.0160 303.7636 0005849 334.6282  56.7118 14.81129879896882
COSMOS 2251 DEB         
1 34560U 93036UW  26072.15203403  .00010869  00000+0  16243-2 0  9995
2 34560  74.0187 325.6748 0012095  25.8302  97.0568 14.74774867895832
COSMOS 2251 DEB         
1 34563U 93036UZ  26073.58928333  .00002112  00000+0  58877-3 0  9994
2 34563  74.0397  32.1681 0011589 111.8213   5.1866 14.46890641895253
COSMOS 2251 DEB         
1 34564U 93036VA  26073.46140216  .00000825  00000+0  26505-3 0  9990
2 34564  74.0308  68.2865 0018372 159.0129 357.3983 14.40870168893275
COSMOS 2251 DEB         
1 34567U 93036VD  26073.46739674  .00000505  00000+0  22400-3 0  9990
2 34567  74.0445 351.6746 0072585  42.8884  78.2976 14.24124631884304
COSMOS 2251 DEB         
1 34569U 93036VF  26073.03066804  .00001118  00000+0  42827-3 0  9999
2 34569  73.9916  33.0093 0158723 201.3621 281.1918 14.25057781882685
COSMOS 2251 DEB         
1 34570U 93036VG  26073.30386668  .00001268  00000+0  74959-3 0  9991
2 34570  73.9569  59.0085 0192339 281.9033 142.3993 14.00016750868827
COSMOS 2251 DEB         
1 34571U 93036VH  26071.82294627  .00011693  00000+0  28992-2 0  9998
2 34571  74.0414  13.3311 0058862  25.8239 334.5838 14.50896173885999
COSMOS 2251 DEB         
1 34572U 93036VJ  26073.64776076  .00007770  00000+0  18865-2 0  9993
2 34572  74.0099 302.3527 0060566 354.0964  37.8719 14.51908406887116
