[{"OBJECT_NAME":"COSMOS 2251 DEB","OBJECT_ID":"1993-036UA","EPOCH":"2026-03-14T13:38:39.661440","MEAN_MOTION":14.32891033,"ECCENTRICITY":0.00695352,"INCLINATION":73.9768,"RA_OF_ASC_NODE":245.1667,"ARG_OF_PERICENTER":36.8702,"MEAN_ANOMALY":26.8867,"EPHEMERIS_TYPE":0,"CLASSIFICATION_TYPE":"U","NORAD_CAT_ID":34481,"ELEMENT_SET_NO":999,"REV_AT_EPOCH":88764,"BSTAR":0.00041166169,"MEAN_MOTION_DOT":1.129e-5,"MEAN_MOTION_DDOT":0},{"OBJECT_NAME":"COSMOS 2251 DEB","OBJECT_ID":"1993-036UB","EPOCH":"2026-03-14T08:48:17.655264","MEAN_MOTION":14.71834338,"ECCENTRICITY":0.00376725,"INCLINATION":74.036,"RA_OF_ASC_NODE":45.7934,"ARG_OF_PERICENTER":86.3934,"MEAN_ANOMALY":39.672,"EPHEMERIS_TYPE":0,"CLASSIFICATION_TYPE":"U","NORAD_CAT_ID":34482,"ELEMENT_SET_NO":999,"REV_AT_EPOCH":89534,"BSTAR":0.0024121113,"MEAN_MOTION_DOT":0.00015256,"MEAN_MOTION_DDOT":0},{"OBJECT_NAME":"COSMOS 2251 DEB","OBJECT_ID":"1993-036UE","EPOCH":"2026-03-13T10:25:03.153792","MEAN_MOTION":13.54833598,"ECCENTRICITY":0.03800425,"INCLINATION":73.9146,"RA_OF_ASC_NODE":57.1916,"ARG_OF_PERICENTER":68.8632,"MEAN_ANOMALY":84.4332,"EPHEMERIS_TYPE":0,"CLASSIFICATION_TYPE":"U","NORAD_CAT_ID":34544,"ELEMENT_SET_NO":999,"REV_AT_EPOCH":84110,"BSTAR":0.0006477834,"MEAN_MOTION_DOT":6.87e-6,"MEAN_MOTION_DDOT":0},{"OBJECT_NAME":"COSMOS 2251 DEB","OBJECT_ID":"1993-036UG","EPOCH":"2026-03-14T04:12:14.124672","MEAN_MOTION":14.45870536,"ECCENTRICITY":0.00197101,"INCLINATION":74.0289,"RA_OF_ASC_NODE":78.6309,"ARG_OF_PERICENTER":139.7032,"MEAN_ANOMALY":347.1007,"EPHEMERIS_TYPE":0,"CLASSIFICATION_TYPE":"U","NORAD_CAT_ID":34546,"ELEMENT_SET_NO":999,"REV_AT_EPOCH":89347,"BSTAR":0.00053358048,"MEAN_MOTION_DOT":1.874e-5,"MEAN_MOTION_DDOT":0},{"OBJECT_NAME":"COSMOS 2251 DEB","OBJECT_ID":"1993-036UH","EPOCH":"2026-03-14T15:05:33.875520","MEAN_MOTION":14.74619188,"ECCENTRICITY":0.00165052,"INCLINATION":74.0291,"RA_OF_ASC_NODE":281.5096,"ARG_OF_PERICENTER":336.5097,"MEAN_ANOMALY":23.5321,"EPHEMERIS_TYPE":0,"CLASSIFICATION_TYPE":"U","NORAD_CAT_ID":34547,"ELEMENT_SET_NO":999,"REV_AT_EPOCH":89875,"BSTAR":0.0014494899,"MEAN_MOTION_DOT":9.668e-5,"MEAN_MOTION_DDOT":0},{"OBJECT_NAME":"COSMOS 2251 DEB","OBJECT_ID":"1993-036UP","EPOCH":"2026-03-13T23:34:36.840576","MEAN_MOTION":14.5889215,"ECCENTRICITY":0.00160142,"INCLINATION":74.0268,"RA_OF_ASC_NODE":18.1386,"ARG_OF_PERICENTER":76.786,"MEAN_ANOMALY":42.8151,"EPHEMERIS_TYPE":0,"CLASSIFICATION_TYPE":"U","NORAD_CAT_ID":34553,"ELEMENT_SET_NO":999,"REV_AT_EPOCH":89426,"BSTAR":0.0013986612,"MEAN_MOTION_DOT":6.54e-5,"MEAN_MOTION_DDOT":0},{"OBJECT_NAME":"COSMOS 2251 DEB","OBJECT_ID":"1993-036UQ","EPOCH":"2026-03-13T03:24:29.844576","MEAN_MOTION":14.38142884,"ECCENTRICITY":0.00231069,"INCLINATION":74.0377,"RA_OF_ASC_NODE":132.5102,"ARG_OF_PERICENTER":181.0965,"MEAN_ANOMALY":207.7937,"EPHEMERIS_TYPE":0,"CLASSIFICATION_TYPE":"U","NORAD_CAT_ID":34554,"ELEMENT_SET_NO":999,"REV_AT_EPOCH":89055,"BSTAR":0.00026532287,"MEAN_MOTION_DOT":7.81e-6,"MEAN_MOTION_DDOT":0},{"OBJECT_NAME":"COSMOS 2251 DEB","OBJECT_ID":"1993-036US","EPOCH":"2026-03-14T15:21:27.842976","MEAN_MOTION":14.81129879,"ECCENTRICITY":0.00058495,"INCLINATION":74.016,"RA_OF_ASC_NODE":303.7636,"ARG_OF_PERICENTER":334.6282,"MEAN_ANOMALY":56.7118,"EPHEMERIS_TYPE":0,"CLASSIFICATION_TYPE":"U","NORAD_CAT_ID":34556,"ELEMENT_SET_NO":999,"REV_AT_EPOCH":89688,"BSTAR":0.0024237637,"MEAN_MOTION_DOT":0.00018863,"MEAN_MOTION_DDOT":0},{"OBJECT_NAME":"COSMOS 2251 DEB","OBJECT_ID":"1993-036UW","EPOCH":"2026-03-13T03:38:55.740192","MEAN_MOTION":14.74774867,"ECCENTRICITY":0.00120957,"INCLINATION":74.0187,"RA_OF_ASC_NODE":325.6748,"ARG_OF_PERICENTER":25.8302,"MEAN_ANOMALY":97.0568,"EPHEMERIS_TYPE":0,"CLASSIFICATION_TYPE":"U","NORAD_CAT_ID":34560,"ELEMENT_SET_NO":999,"REV_AT_EPOCH":89583,"BSTAR":0.001624305,"MEAN_MOTION_DOT":0.00010869,"MEAN_MOTION_DDOT":0},{"OBJECT_NAME":"COSMOS 2251 DEB","OBJECT_ID":"1993-036UZ","EPOCH":"2026-03-14T14:08:34.079712","MEAN_MOTION":14.46890641,"ECCENTRICITY":0.00115899,"INCLINATION":74.0397,"RA_OF_ASC_NODE":32.1681,"ARG_OF_PERICENTER":111.8213,"MEAN_ANOMALY":5.1866,"EPHEMERIS_TYPE":0,"CLASSIFICATION_TYPE":"U","NORAD_CAT_ID":34563,"ELEMENT_SET_NO":999,"REV_AT_EPOCH":89525,"BSTAR":0.00058877222,"MEAN_MOTION_DOT":2.112e-5,"MEAN_MOTION_DDOT":0},{"OBJECT_NAME":"COSMOS 2251 DEB","OBJECT_ID":"1993-036VA","EPOCH":"2026-03-14T11:04:25.146624","MEAN_MOTION":14.40870168,"ECCENTRICITY":0.00183722,"INCLINATION":74.0308,"RA_OF_ASC_NODE":68.2865,"ARG_OF_PERICENTER":159.0129,"MEAN_ANOMALY":357.3983,"EPHEMERIS_TYPE":0,"CLASSIFICATION_TYPE":"U","NORAD_CAT_ID":34564,"ELEMENT_SET_NO":999,"REV_AT_EPOCH":89327,"BSTAR":0.00026504971,"MEAN_MOTION_DOT":8.25e-6,"MEAN_MOTION_DDOT":0},{"OBJECT_NAME":"COSMOS 2251 DEB","OBJECT_ID":"1993-036VD","EPOCH":"2026-03-14T11:13:03.078336","MEAN_MOTION":14.24124631,"ECCENTRICITY":0.00725858,"INCLINATION":74.0445,"RA_OF_ASC_NODE":351.6746,"ARG_OF_PERICENTER":42.8884,"MEAN_ANOMALY":78.2976,"EPHEMERIS_TYPE":0,"CLASSIFICATION_TYPE":"U","NORAD_CAT_ID":34567,"ELEMENT_SET_NO":999,"REV_AT_EPOCH":88430,"BSTAR":0.00022399578,"MEAN_MOTION_DOT":5.05e-6,"MEAN_MOTION_DDOT":0},{"OBJECT_NAME":"COSMOS 2251 DEB","OBJECT_ID":"1993-036VF","EPOCH":"2026-03-14T00:44:09.718656","MEAN_MOTION":14.25057781,"ECCENTRICITY":0.01587235,"INCLINATION":73.9916,"RA_OF_ASC_NODE":33.0093,"ARG_OF_PERICENTER":201.3621,"MEAN_ANOMALY":281.1918,"EPHEMERIS_TYPE":0,"CLASSIFICATION_TYPE":"U","NORAD_CAT_ID":34569,"ELEMENT_SET_NO":999,"REV_AT_EPOCH":88268,"BSTAR":0.00042827144,"MEAN_MOTION_DOT":1.118e-5,"MEAN_MOTION_DDOT":0},{"OBJECT_NAME":"COSMOS 2251 DEB","OBJECT_ID":"1993-036VG","EPOCH":"2026-03-14T07:17:34.081152","MEAN_MOTION":14.0001675,"ECCENTRICITY":0.01923399,"INCLINATION":73.9569,"RA_OF_ASC_NODE":59.0085,"ARG_OF_PERICENTER":281.9033,"MEAN_ANOMALY":142.3993,"EPHEMERIS_TYPE":0,"CLASSIFICATION_TYPE":"U","NORAD_CAT_ID":34570,"ELEMENT_SET_NO":999,"REV_AT_EPOCH":86882,"BSTAR":0.00074958738,"MEAN_MOTION_DOT":1.268e-5,"MEAN_MOTION_DDOT":0},{"OBJECT_NAME":"COSMOS 2251 DEB","OBJECT_ID":"1993-036VH","EPOCH":"2026-03-12T19:45:02.557728","MEAN_MOTION":14.50896173,"ECCENTRICITY":0.00588629,"INCLINATION":74.0414,"RA_OF_ASC_NODE":13.3311,"ARG_OF_PERICENTER":25.8239,"MEAN_ANOMALY":334.5838,"EPHEMERIS_TYPE":0,"CLASSIFICATION_TYPE":"U","NORAD_CAT_ID":34571,"ELEMENT_SET_NO":999,"REV_AT_EPOCH":88599,"BSTAR":0.0028992256,"MEAN_MOTION_DOT":0.00011693,"MEAN_MOTION_DDOT":0},{"OBJECT_NAME":"COSMOS 2251 DEB","OBJECT_ID":"1993-036VJ","EPOCH":"2026-03-14T15:32:46.529664","MEAN_MOTION":14.51908406,"ECCENTRICITY":0.00605662,"INCLINATION":74.0099,"RA_OF_ASC_NODE":302.3527,"ARG_OF_PERICENTER":354.0964,"MEAN_ANOMALY":37.8719,"EPHEMERIS_TYPE":0,"CLASSIFICATION_TYPE":"U","NORAD_CAT_ID":34572,"ELEMENT_SET_NO":999,"REV_AT_EPOCH":88711,"BSTAR":0.0018865397,"MEAN_MOTION_DOT":7.77e-5,"MEAN_MOTION_DDOT":0}]
